NORAD_CAT_ID,OBJECT_NAME,OBJECT_TYPE,EPOCH,MEAN_MOTION,ECCENTRICITY,INCLINATION,RA_OF_ASC_NODE,ARG_OF_PERICENTER,MEAN_ANOMALY,BSTAR,MEAN_MOTION_DOT,MEAN_MOTION_DDOT,TLE_LINE0,TLE_LINE1,TLE_LINE2,SEMIMAJOR_AXIS,PERIOD,APOGEE,PERIGEE,DECAYED
51974.0,STARLINK-3672,PAYLOAD,2022-04-18 08:00:01,15.73233226,0.0001415,53.2142,302.2335,142.9801,351.8635,-0.00015971,-0.00023005,0.0,0 STARLINK-3672,1 51974U 22025U   22108.33334491 -.00023005  00000-0 -15971-3 0  9998,2 51974  53.2142 302.2335 0001415 142.9801 351.8635 15.73233226  7539,6727.8,91.531,350.617,348.713,0.0
51974.0,STARLINK-3672,PAYLOAD,2022-04-18 14:00:01,15.73208222,0.0001588,53.2146,300.9961,138.1799,333.3771,2.1362e-05,2.379e-05,0.0,0 STARLINK-3672,1 51974U 22025U   22108.58334491  .00002379  00000-0  21362-4 0  9996,2 51974  53.2146 300.9961 0001588 138.1799 333.3771 15.73208222  3706,6727.871999999999,91.533,350.805,348.668,0.0
51974.0,STARLINK-3672,PAYLOAD,2022-04-18 22:00:00,15.73169565,0.0001453,53.2148,299.3485,125.3672,75.1462,0.00021236,0.00029248,0.0,0 STARLINK-3672,1 51974U 22025U   22108.91667824  .00029248  00000-0  21236-3 0  9995,2 51974  53.2148 299.3485 0001453 125.3672  75.1462 15.73169565  3703,6727.982,91.535,350.825,348.869,0.0
51974.0,STARLINK-3672,PAYLOAD,2022-04-19 14:00:01,15.73207335,0.0001698,53.2152,296.0472,126.6647,251.6928,0.00030258,0.00042072,0.0,0 STARLINK-3672,1 51974U 22025U   22109.58334491  .00042072  00000-0  30258-3 0  9994,2 51974  53.2152 296.0472 0001698 126.6647 251.6928 15.73207335  7738,6727.874,91.533,350.88199999999995,348.597,0.0
51974.0,STARLINK-3672,PAYLOAD,2022-04-20 06:00:00,15.73184686,0.0001386999999999,53.2147,292.748,128.9828,67.2915,-9.2442e-06,-1.916e-05,0.0,0 STARLINK-3672,1 51974U 22025U   22110.25001157 -.00001916  00000-0 -92442-5 0  9999,2 51974  53.2147 292.7480 0001387 128.9828  67.2915 15.73184686  7836,6727.939,91.534,350.737,348.871,0.0
51974.0,STARLINK-3672,PAYLOAD,2022-04-20 14:00:01,15.73240517,0.0001435,53.2149,291.0986,133.5273,151.6468,-0.00036332,-0.00051388,0.0,0 STARLINK-3672,1 51974U 22025U   22110.58334491 -.00051388  00000-0 -36332-3 0  9997,2 51974  53.2149 291.0986 0001435 133.5273 151.6468 15.73240517  3700,6727.78,91.531,350.61,348.67900000000014,0.0
51974.0,STARLINK-3672,PAYLOAD,2022-04-20 22:00:00,15.73193284,0.000115,53.215,289.4509,124.3676,249.7759,-2.8335e-05,-4.593e-05,0.0,0 STARLINK-3672,1 51974U 22025U   22110.91667824 -.00004593  00000-0 -28335-4 0  9994,2 51974  53.2150 289.4509 0001150 124.3676 249.7759 15.73193284  7943,6727.9140000000025,91.534,350.55300000000005,349.006,0.0
51974.0,STARLINK-3672,PAYLOAD,2022-04-21 06:00:00,15.73264423,0.000132,53.2163,287.7992,125.0533,337.9818,-0.0024858,-0.00336813,0.0,0 STARLINK-3672,1 51974U 22025U   22111.25001157 -.00336813  00000-0 -24858-2 0  9990,2 51974  53.2163 287.7992 0001320 125.0533 337.9818 15.73264423  7998,6727.712,91.529,350.465,348.68800000000016,0.0
51974.0,STARLINK-3672,PAYLOAD,2022-04-21 14:00:01,15.73252451,0.0001391,53.2154,286.1501,124.42,67.5279,-0.00063165,-0.00088539,0.0,0 STARLINK-3672,1 51974U 22025U   22111.58334491 -.00088539  00000-0 -63165-3 0  9990,2 51974  53.2154 286.1501 0001391 124.4200  67.5279 15.73252451  3710,6727.746,91.53,350.546,348.675,0.0
51974.0,STARLINK-3672,PAYLOAD,2022-04-21 22:00:00,15.73193371,0.0001146,53.215,284.5022,112.132,168.8415,0.00017058,0.0002338,0.0,0 STARLINK-3672,1 51974U 22025U   22111.91667824  .00023380  00000-0  17058-3 0  9997,2 51974  53.2150 284.5022 0001146 112.1320 168.8415 15.73193371  3713,6727.9140000000025,91.534,350.55,349.0080000000001,0.0
51974.0,STARLINK-3672,PAYLOAD,2022-04-22 06:00:00,15.73196905,0.000111,53.2147,282.8507,125.4732,244.4334,0.00059213,0.00083298,0.0,0 STARLINK-3672,1 51974U 22025U   22112.25001157  .00083298  00000-0  59213-3 0  9999,2 51974  53.2147 282.8507 0001110 125.4732 244.4334 15.73196905  8153,6727.904,91.533,350.516,349.022,0.0
51974.0,STARLINK-3672,PAYLOAD,2022-04-22 14:00:01,15.73267093,0.0001157,53.2149,281.2018,121.7959,337.0353,-0.00081676,-0.0011403,0.0,0 STARLINK-3672,1 51974U 22025U   22112.58334491 -.00114030  00000-0 -81676-3 0  9994,2 51974  53.2149 281.2018 0001157 121.7959 337.0353 15.73267093  3709,6727.704000000002,91.529,350.347,348.79,0.0
51974.0,STARLINK-3672,PAYLOAD,2022-04-22 16:00:00,15.73238283,0.0001124,53.2155,280.7896,117.7992,93.2842,-0.00065363,-0.00091508,0.0,0 STARLINK-3672,1 51974U 22025U   22112.66667824 -.00091508  00000-0 -65363-3 0  9991,2 51974  53.2155 280.7896 0001124 117.7992  93.2842 15.73238283  8214,6727.786,91.531,350.407,348.895,0.0
51974.0,STARLINK-3672,PAYLOAD,2022-04-23 06:00:02,15.72926009,0.0001156,53.2172,277.8992,128.9544,147.8055,-0.00080045,-0.001102,0.0,0 STARLINK-3672,1 51974U 22025U   22113.25002315 -.00110200  00000-0 -80045-3 0  9990,2 51974  53.2172 277.8992 0001156 128.9544 147.8055 15.72926009  8311,6728.676,91.549,351.319,349.764,0.0
51974.0,STARLINK-3672,PAYLOAD,2022-04-23 14:00:01,15.72866369,0.0001148,53.2177,276.2476,118.624,246.6479,-0.0056734,-0.0072143999999999,0.0,0 STARLINK-3672,1 51974U 22025U   22113.58334491 -.00721440  00000-0 -56734-2 0  9990,2 51974  53.2177 276.2476 0001148 118.6240 246.6479 15.72866369  8361,6728.847,91.553,351.4840000000001,349.939,0.0
51974.0,STARLINK-3672,PAYLOAD,2022-04-24 14:00:01,15.7133469,0.0001194,53.2175,271.2987,98.4955,169.5846,-0.0060246,-0.00717903,0.0,0 STARLINK-3672,1 51974U 22025U   22114.58334491 -.00717903  00000-0 -60246-2 0  9993,2 51974  53.2175 271.2987 0001194  98.4955 169.5846 15.71334690  3700,6733.219,91.642,355.88699999999994,354.28,0.0
51974.0,STARLINK-3672,PAYLOAD,2022-04-24 20:00:01,15.70951097,0.0001312,53.2174,270.0646,117.26,125.6598,-0.0061062,-0.0071609,0.0,0 STARLINK-3672,1 51974U 22025U   22114.83334491 -.00716090  00000-0 -61062-2 0  9994,2 51974  53.2174 270.0646 0001312 117.2600 125.6598 15.70951097  8568,6734.315,91.664,357.06300000000016,355.296,0.0
51974.0,STARLINK-3672,PAYLOAD,2022-04-25 14:00:01,15.69803784,0.0001178,53.2175,266.361,95.4236,69.9494,-0.006407,-0.00715959,0.0,0 STARLINK-3672,1 51974U 22025U   22115.58334491 -.00715959  00000-0 -64070-2 0  9992,2 51974  53.2175 266.3610 0001178  95.4236  69.9494 15.69803784  3714,6737.595,91.731,360.254,358.667,0.0
51974.0,STARLINK-3672,PAYLOAD,2022-04-25 22:00:00,15.69293833,0.0001202,53.2172,264.7184,110.9626,138.9482,-0.0065364,-0.00715116,0.0,0 STARLINK-3672,1 51974U 22025U   22115.91667824 -.00715116  00000-0 -65364-2 0  9990,2 51974  53.2172 264.7184 0001202 110.9626 138.9482 15.69293833  8732,6739.055,91.761,361.73,360.11,0.0
51974.0,STARLINK-3672,PAYLOAD,2022-04-26 14:00:01,15.68275599,0.0001061,53.2175,261.4346,75.6252,341.5899,-0.0068547,-0.00718605,0.0,0 STARLINK-3672,1 51974U 22025U   22116.58335648 -.00718605  00000-0 -68547-2 0  9992,2 51974  53.2175 261.4346 0001061  75.6252 341.5899 15.68275599  3696,6741.972,91.821,364.552,363.121,0.0
51974.0,STARLINK-3672,PAYLOAD,2022-04-26 22:00:00,15.67765034,0.0001098,53.217,259.7957,87.7703,52.0794,-0.0069851,-0.00717174,0.0,0 STARLINK-3672,1 51974U 22025U   22116.91667824 -.00717174  00000-0 -69851-2 0  9992,2 51974  53.2170 259.7957 0001098  87.7703  52.0794 15.67765034  8885,6743.435,91.85,366.041,364.56,0.0
51974.0,STARLINK-3672,PAYLOAD,2022-04-27 14:00:01,15.66744719,0.0001128,53.2173,256.5192,84.8999,218.5779,-0.0072751,-0.00716483,0.0,0 STARLINK-3672,1 51974U 22025U   22117.58335648 -.00716483  00000-0 -72751-2 0  9997,2 51974  53.2173 256.5192 0001128  84.8999 218.5779 15.66744719  3695,6746.363,91.91,368.989,367.467,0.0
51974.0,STARLINK-3672,PAYLOAD,2022-04-27 22:00:00,15.66235479,0.0001012,53.2171,254.8838,108.0254,276.248,-0.0074278,-0.00716513,0.0,0 STARLINK-3672,1 51974U 22025U   22117.91667824 -.00716513  00000-0 -74278-2 0  9998,2 51974  53.2171 254.8838 0001012 108.0254 276.2480 15.66235479  9049,6747.825,91.94,370.37300000000016,369.007,0.0
51974.0,STARLINK-3672,PAYLOAD,2022-04-28 14:00:01,15.65212826,0.0001269,53.2174,251.615,73.708,110.4527,-0.0077003999999999,-0.00713121,0.0,0 STARLINK-3672,1 51974U 22025U   22118.58334491 -.00713121  00000-0 -77004-2 0  9995,2 51974  53.2174 251.6150 0001269  73.7080 110.4527 15.65212826  3701,6750.764,92.0,373.485,371.772,0.0
51974.0,STARLINK-3672,PAYLOAD,2022-04-28 20:00:01,15.64828327,0.0001148,53.2172,250.3915,98.5261,54.9597,-0.0077729,-0.00709138,0.0,0 STARLINK-3672,1 51974U 22025U   22118.83334491 -.00709138  00000-0 -77729-2 0  9990,2 51974  53.2172 250.3915 0001148  98.5261  54.9597 15.64828327  9181,6751.87,92.023,374.51,372.959,0.0
51974.0,STARLINK-3672,PAYLOAD,2022-04-29 14:00:01,15.63686012,0.0001126,53.2172,246.7222,68.1444,351.247,-0.0082441,-0.0071786,0.0,0 STARLINK-3672,1 51974U 22025U   22119.58334491 -.00717860  00000-0 -82441-2 0  9991,2 51974  53.2172 246.7222 0001126  68.1444 351.2470 15.63686012  3700,6755.156999999997,92.09,377.783,376.262,0.0
51974.0,STARLINK-3672,PAYLOAD,2022-04-29 22:00:00,15.63175908,0.0001115,53.2171,245.0936,90.9502,45.6266,-0.0084070999999999,-0.00717451,0.0,0 STARLINK-3672,1 51974U 22025U   22119.91667824 -.00717451  00000-0 -84071-2 0  9994,2 51974  53.2171 245.0936 0001115  90.9502  45.6266 15.63175908  9350,6756.627,92.12,379.245,377.739,0.0
51974.0,STARLINK-3672,PAYLOAD,2022-04-30 14:00:01,15.62153781,0.0001212,53.2174,241.8402,75.5626,213.5469,-0.0087035,-0.00713813,0.0,0 STARLINK-3672,1 51974U 22025U   22120.58334491 -.00713813  00000-0 -87035-2 0  9991,2 51974  53.2174 241.8402 0001212  75.5626 213.5469 15.62153781  3673,6759.574000000001,92.18,382.258,380.62,0.0
51974.0,STARLINK-3672,PAYLOAD,2022-04-30 22:00:00,15.61645695,0.0001032,53.2172,240.2152,101.4982,262.9572,-0.0089079,-0.00715978,0.0,0 STARLINK-3672,1 51974U 22025U   22120.91667824 -.00715978  00000-0 -89079-2 0  9991,2 51974  53.2172 240.2152 0001032 101.4982 262.9572 15.61645695  9511,6761.04,92.21,383.603,382.207,0.0
